ORBCOMM FM06            
1 25118U 97084G   26157.16005234  .00001539  00000+0  45359-3 0  9993
2 25118  45.0131 105.7957 0002015 297.5381  76.6827 14.47535380492797
ORBCOMM FM04            
1 25159U 98007C   26156.89819017  .00001104  00000+0  42338-3 0  9997
2 25159 107.9626 146.1854 0040972 344.2317  15.7545 14.35720390474972
ORBCOMM FM19            
1 25415U 98046C   26157.13701396  .00001118  00000+0  40085-3 0  9995
2 25415  44.9944 296.0858 0004145 237.6207 292.1168 14.39478857455180
ORBCOMM FM20            
1 25416U 98046D   26157.10605475  .00000816  00000+0  31359-3 0  9992
2 25416  44.9949 304.0335 0001519 212.7574 147.3180 14.38051622455191
ORBCOMM FM27            
1 25481U 98053G   26156.31687977  .00000999  00000+0  36574-3 0  9997
2 25481  45.0066  31.7321 0000356  22.4245 337.6619 14.39118024448524
ORBCOMM FM32            
1 25982U 99065C   26156.47268570  .00000600  00000+0  24753-3 0  9993
2 25982  45.0146 228.6893 0005279 336.7137  23.3472 14.37116040385407
ORBCOMM FM109           
1 40086U 14040A   26156.66083976  .00000525  00000+0  14730-3 0  9991
2 40086  47.0015 145.9819 0001543 212.1666 147.9126 14.58830530632661
ORBCOMM FM114           
1 41179U 15081A   26152.97982418  .00000602  00000+0  16356-3 0  9992
2 41179  47.0052  73.9009 0001546 135.7645 224.3365 14.58838571555535
ORBCOMM FM110           
1 41182U 15081D   26153.99571428  .00000757  00000+0  19640-3 0  9994
2 41182  47.0024  68.5419 0003230 358.8742   1.2136 14.58854978555550
ORBCOMM FM118           
1 41183U 15081E   26153.00264808  .00003490  00000+0  77410-3 0  9994
2 41183  47.0044  73.5648 0003601 319.9456  40.1164 14.58855670555514
ORBCOMM FM112           
1 41184U 15081F   26156.15783895  .00000729  00000+0  19041-3 0  9994
2 41184  47.0001 327.1297 0002934 162.7897 197.3089 14.58885738557192
ORBCOMM FM113           
1 41185U 15081G   26156.20258946  .00000539  00000+0  15023-3 0  9990
2 41185  47.0019 327.2885 0001524 173.9999 186.0905 14.58845078557181
ORBCOMM FM108           
1 41187U 15081J   26156.50751746  .00000700  00000+0  18440-3 0  9997
2 41187  47.0046 237.4186 0002310 171.2053 188.8874 14.58857926558377
ORBCOMM FM117           
1 41188U 15081K   26156.95241018  .00000685  00000+0  18110-3 0  9999
2 41188  47.0008 233.9523 0002864 175.5307 184.5605 14.58855403558480
ORBCOMM FM116           
1 41189U 15081L   26157.13842253  .00000831  00000+0  21195-3 0  9999
2 41189  47.0034 322.8622 0001241 356.9601   3.1277 14.58866650557327
